0 CZ-4 DEB
1 29043U 04035K   13282.80442373  .00001145  00000-0  11256-3 0  6926
2 29043 097.8004 283.1848 0009611 142.3640 217.8509 14.94079549426904
0 CZ-4 DEB
1 29043U 04035K   13283.80901288  .00001026  00000-0  10137-3 0  6938
2 29043 097.8028 284.1893 0010479 136.4491 223.7463 14.94078802427056
0 CZ-4 DEB
1 29043U 04035K   13286.22001660  .00000971  00000-0  96269-4 0  6942
2 29043 097.8040 286.5845 0010382 127.5925 232.6207 14.94083025427417
0 CZ-4 DEB
1 29043U 04035K   13288.22917826  .00000979  00000-0  96990-4 0  6954
2 29043 097.8025 288.5778 0011229 124.0390 236.2178 14.94087918427711
0 CZ-4 DEB
1 29043U 04035K   13289.83648847  .00001074  00000-0  10584-3 0  6968
2 29043 097.8022 290.1687 0010323 121.8034 238.4213 14.94093586427958
0 CZ-4 DEB
1 29043U 04035K   13291.77865637  .00001317  00000-0  12847-3 0  6977
2 29043 097.8046 292.1025 0011967 113.5765 246.7060 14.94103173428245
0 CZ-4 DEB
1 29043U 04035K   13293.31898440  .00001485  00000-0  14419-3 0  6981
2 29043 097.8041 293.6293 0011129 106.0449 254.2260 14.94110500428472
0 CZ-4 DEB
1 29043U 04035K   13296.19871635  .00001646  00000-0  15915-3 0  6999
2 29043 097.8036 296.4903 0010978 097.7117 262.5618 14.94122277428905
